SL-14 R/B               
1 16792U 86046B   26008.92758248  .00000546  00000+0  60116-4 0  9992
2 16792  82.4831 136.6390 0024441  67.0687 293.3105 14.85521940117539
SL-14 R/B               
1 16882U 86055B   26009.00335036  .00000559  00000+0  61707-4 0  9999
2 16882  82.5200 182.7534 0019256 165.4791 314.5811 14.85565185110508
AJISAI (EGS)            
1 16908U 86061A   26008.97191760 -.00000081  00000+0  11647-3 0  9992
2 16908  50.0095 276.9815 0011313 134.2638 316.5758 12.44514771460561
COSMOS 1812             
1 17295U 87003A   26008.16481981  .00126884  00000+0  61043-3 0  9991
2 17295  82.4842 263.2831 0003959  57.3790 302.7860 15.82272788134820
SL-14 R/B               
1 17567U 87024B   26008.51135979  .00000712  00000+0  78356-4 0  9995
2 17567  82.5292 149.3058 0019711  99.4888 260.8558 14.86061567 79195
COSMOS 1833             
1 17589U 87027A   26008.54748013  .00000353  00000+0  21444-3 0  9990
2 17589  70.9188  92.4264 0023818 294.5927  65.2712 14.13039192  1829
SL-16 R/B               
1 17590U 87027B   26008.55417407  .00000255  00000+0  15014-3 0  9990
2 17590  71.0031  43.2148 0006714 231.0743 128.9783 14.17158340  6824
SL-14 R/B               
1 17912U 87038B   26008.40796148  .00000666  00000+0  74579-4 0  9994
2 17912  82.5018 353.5794 0019521   8.7564 351.3989 14.85294643 70281
COSMOS 1844             
1 17973U 87041A   26008.64608988 -.00000039  00000+0  49854-5 0  9999
2 17973  70.8992 160.8215 0028490 114.4300 245.9799 14.14539343995097
SL-14 R/B               
1 18153U 87055B   26008.59728202  .00000551  00000+0  60758-4 0  9994
2 18153  82.4980  45.6731 0019917 208.5461 151.4667 14.85553905 61013
COSMOS 1867             
1 18187U 87060A   26008.63955661  .00000026  00000+0  47218-4 0  9996
2 18187  65.0111 114.8731 0013791 273.7408  86.2099 14.31491895 11346
SL-14 R/B               
1 18749U 88001B   26008.92545368  .00000433  00000+0  47259-4 0  9994
2 18749  82.5121 251.5789 0019585  76.9540 283.3861 14.85456670 33155
