CCSDS_OMM_VERS = 2.0
CREATION_DATE  = 
ORIGINATOR     = 

OBJECT_NAME    = SL-14 R/B
OBJECT_ID      = 1986-046B
CENTER_NAME    = EARTH
REF_FRAME      = TEME
TIME_SYSTEM    = UTC
MEAN_ELEMENT_THEORY = SGP/SGP4

EPOCH          = 2026-01-08T22:15:43.126272
MEAN_MOTION    = 14.85521940
ECCENTRICITY   = .0024441
INCLINATION    = 82.4831
RA_OF_ASC_NODE = 136.6390
ARG_OF_PERICENTER = 67.0687
MEAN_ANOMALY   = 293.3105

EPHEMERIS_TYPE = 0
CLASSIFICATION_TYPE = U
NORAD_CAT_ID   = 16792
ELEMENT_SET_NO = 999
REV_AT_EPOCH   = 11753
BSTAR          = .60116E-4
MEAN_MOTION_DOT = .546E-5
MEAN_MOTION_DDOT = 0

CCSDS_OMM_VERS = 2.0
CREATION_DATE  = 
ORIGINATOR     = 

OBJECT_NAME    = SL-14 R/B
OBJECT_ID      = 1986-055B
CENTER_NAME    = EARTH
REF_FRAME      = TEME
TIME_SYSTEM    = UTC
MEAN_ELEMENT_THEORY = SGP/SGP4

EPOCH          = 2026-01-09T00:04:49.471104
MEAN_MOTION    = 14.85565185
ECCENTRICITY   = .0019256
INCLINATION    = 82.5200
RA_OF_ASC_NODE = 182.7534
ARG_OF_PERICENTER = 165.4791
MEAN_ANOMALY   = 314.5811

EPHEMERIS_TYPE = 0
CLASSIFICATION_TYPE = U
NORAD_CAT_ID   = 16882
ELEMENT_SET_NO = 999
REV_AT_EPOCH   = 11050
BSTAR          = .61707E-4
MEAN_MOTION_DOT = .559E-5
MEAN_MOTION_DDOT = 0

CCSDS_OMM_VERS = 2.0
CREATION_DATE  = 
ORIGINATOR     = 

OBJECT_NAME    = AJISAI (EGS)
OBJECT_ID      = 1986-061A
CENTER_NAME    = EARTH
REF_FRAME      = TEME
TIME_SYSTEM    = UTC
MEAN_ELEMENT_THEORY = SGP/SGP4

EPOCH          = 2026-01-08T23:19:33.680640
MEAN_MOTION    = 12.44514771
ECCENTRICITY   = .0011313
INCLINATION    = 50.0095
RA_OF_ASC_NODE = 276.9815
ARG_OF_PERICENTER = 134.2638
MEAN_ANOMALY   = 316.5758

EPHEMERIS_TYPE = 0
CLASSIFICATION_TYPE = U
NORAD_CAT_ID   = 16908
ELEMENT_SET_NO = 999
REV_AT_EPOCH   = 46056
BSTAR          = .11647E-3
MEAN_MOTION_DOT = -.81E-6
MEAN_MOTION_DDOT = 0

CCSDS_OMM_VERS = 2.0
CREATION_DATE  = 
ORIGINATOR     = 

OBJECT_NAME    = COSMOS 1812
OBJECT_ID      = 1987-003A
CENTER_NAME    = EARTH
REF_FRAME      = TEME
TIME_SYSTEM    = UTC
MEAN_ELEMENT_THEORY = SGP/SGP4

EPOCH          = 2026-01-08T03:57:20.431584
MEAN_MOTION    = 15.82272788
ECCENTRICITY   = .00039599
INCLINATION    = 82.4842
RA_OF_ASC_NODE = 263.2831
ARG_OF_PERICENTER = 57.3790
MEAN_ANOMALY   = 302.7860

EPHEMERIS_TYPE = 0
CLASSIFICATION_TYPE = U
NORAD_CAT_ID   = 17295
ELEMENT_SET_NO = 999
REV_AT_EPOCH   = 13482
BSTAR          = .6104307E-3
MEAN_MOTION_DOT = .126884E-2
MEAN_MOTION_DDOT = 0

CCSDS_OMM_VERS = 2.0
CREATION_DATE  = 
ORIGINATOR     = 

OBJECT_NAME    = SL-14 R/B
OBJECT_ID      = 1987-024B
CENTER_NAME    = EARTH
REF_FRAME      = TEME
TIME_SYSTEM    = UTC
MEAN_ELEMENT_THEORY = SGP/SGP4

EPOCH          = 2026-01-08T12:16:21.485856
MEAN_MOTION    = 14.86061567
ECCENTRICITY   = .00197112
INCLINATION    = 82.5292
RA_OF_ASC_NODE = 149.3058
ARG_OF_PERICENTER = 99.4888
MEAN_ANOMALY   = 260.8558

EPHEMERIS_TYPE = 0
CLASSIFICATION_TYPE = U
NORAD_CAT_ID   = 17567
ELEMENT_SET_NO = 999
REV_AT_EPOCH   = 7919
BSTAR          = .78356351E-4
MEAN_MOTION_DOT = .712E-5
MEAN_MOTION_DDOT = 0

CCSDS_OMM_VERS = 2.0
CREATION_DATE  = 
ORIGINATOR     = 

OBJECT_NAME    = COSMOS 1833
OBJECT_ID      = 1987-027A
CENTER_NAME    = EARTH
REF_FRAME      = TEME
TIME_SYSTEM    = UTC
MEAN_ELEMENT_THEORY = SGP/SGP4

EPOCH          = 2026-01-08T13:08:22.283232
MEAN_MOTION    = 14.13039192
ECCENTRICITY   = .00238183
INCLINATION    = 70.9188
RA_OF_ASC_NODE = 92.4264
ARG_OF_PERICENTER = 294.5927
MEAN_ANOMALY   = 65.2712

EPHEMERIS_TYPE = 0
CLASSIFICATION_TYPE = U
NORAD_CAT_ID   = 17589
ELEMENT_SET_NO = 999
REV_AT_EPOCH   = 182
BSTAR          = .21443755E-3
MEAN_MOTION_DOT = .353E-5
MEAN_MOTION_DDOT = 0

CCSDS_OMM_VERS = 2.0
CREATION_DATE  = 
ORIGINATOR     = 

OBJECT_NAME    = SL-16 R/B
OBJECT_ID      = 1987-027B
CENTER_NAME    = EARTH
REF_FRAME      = TEME
TIME_SYSTEM    = UTC
MEAN_ELEMENT_THEORY = SGP/SGP4

EPOCH          = 2026-01-08T13:18:00.639648
MEAN_MOTION    = 14.17158340
ECCENTRICITY   = .0006714
INCLINATION    = 71.0031
RA_OF_ASC_NODE = 43.2148
ARG_OF_PERICENTER = 231.0743
MEAN_ANOMALY   = 128.9783

EPHEMERIS_TYPE = 0
CLASSIFICATION_TYPE = U
NORAD_CAT_ID   = 17590
ELEMENT_SET_NO = 999
REV_AT_EPOCH   = 682
BSTAR          = .15013875E-3
MEAN_MOTION_DOT = .255E-5
MEAN_MOTION_DDOT = 0

CCSDS_OMM_VERS = 2.0
CREATION_DATE  = 
ORIGINATOR     = 

OBJECT_NAME    = SL-14 R/B
OBJECT_ID      = 1987-038B
CENTER_NAME    = EARTH
REF_FRAME      = TEME
TIME_SYSTEM    = UTC
MEAN_ELEMENT_THEORY = SGP/SGP4

EPOCH          = 2026-01-08T09:47:27.871872
MEAN_MOTION    = 14.85294643
ECCENTRICITY   = .0019521
INCLINATION    = 82.5018
RA_OF_ASC_NODE = 353.5794
ARG_OF_PERICENTER = 8.7564
MEAN_ANOMALY   = 351.3989

EPHEMERIS_TYPE = 0
CLASSIFICATION_TYPE = U
NORAD_CAT_ID   = 17912
ELEMENT_SET_NO = 999
REV_AT_EPOCH   = 7028
BSTAR          = .74579004E-4
MEAN_MOTION_DOT = .666E-5
MEAN_MOTION_DDOT = 0

CCSDS_OMM_VERS = 2.0
CREATION_DATE  = 
ORIGINATOR     = 

OBJECT_NAME    = COSMOS 1844
OBJECT_ID      = 1987-041A
CENTER_NAME    = EARTH
REF_FRAME      = TEME
TIME_SYSTEM    = UTC
MEAN_ELEMENT_THEORY = SGP/SGP4

EPOCH          = 2026-01-08T15:30:22.165632
MEAN_MOTION    = 14.14539343
ECCENTRICITY   = .00284901
INCLINATION    = 70.8992
RA_OF_ASC_NODE = 160.8215
ARG_OF_PERICENTER = 114.4300
MEAN_ANOMALY   = 245.9799

EPHEMERIS_TYPE = 0
CLASSIFICATION_TYPE = U
NORAD_CAT_ID   = 17973
ELEMENT_SET_NO = 999
REV_AT_EPOCH   = 99509
BSTAR          = .4985351E-5
MEAN_MOTION_DOT = -.39E-6
MEAN_MOTION_DDOT = 0

CCSDS_OMM_VERS = 2.0
CREATION_DATE  = 
ORIGINATOR     = 

OBJECT_NAME    = SL-14 R/B
OBJECT_ID      = 1987-055B
CENTER_NAME    = EARTH
REF_FRAME      = TEME
TIME_SYSTEM    = UTC
MEAN_ELEMENT_THEORY = SGP/SGP4

EPOCH          = 2026-01-08T14:20:05.166528
MEAN_MOTION    = 14.85553905
ECCENTRICITY   = .00199171
INCLINATION    = 82.4980
RA_OF_ASC_NODE = 45.6731
ARG_OF_PERICENTER = 208.5461
MEAN_ANOMALY   = 151.4667

EPHEMERIS_TYPE = 0
CLASSIFICATION_TYPE = U
NORAD_CAT_ID   = 18153
ELEMENT_SET_NO = 999
REV_AT_EPOCH   = 6101
BSTAR          = .60758331E-4
MEAN_MOTION_DOT = .551E-5
MEAN_MOTION_DDOT = 0

CCSDS_OMM_VERS = 2.0
CREATION_DATE  = 
ORIGINATOR     = 

OBJECT_NAME    = COSMOS 1867
OBJECT_ID      = 1987-060A
CENTER_NAME    = EARTH
REF_FRAME      = TEME
TIME_SYSTEM    = UTC
MEAN_ELEMENT_THEORY = SGP/SGP4

EPOCH          = 2026-01-08T15:20:57.691104
MEAN_MOTION    = 14.31491895
ECCENTRICITY   = .00137911
INCLINATION    = 65.0111
RA_OF_ASC_NODE = 114.8731
ARG_OF_PERICENTER = 273.7408
MEAN_ANOMALY   = 86.2099

EPHEMERIS_TYPE = 0
CLASSIFICATION_TYPE = U
NORAD_CAT_ID   = 18187
ELEMENT_SET_NO = 999
REV_AT_EPOCH   = 1134
BSTAR          = .47217578E-4
MEAN_MOTION_DOT = .26E-6
MEAN_MOTION_DDOT = 0

CCSDS_OMM_VERS = 2.0
CREATION_DATE  = 
ORIGINATOR     = 

OBJECT_NAME    = SL-14 R/B
OBJECT_ID      = 1988-001B
CENTER_NAME    = EARTH
REF_FRAME      = TEME
TIME_SYSTEM    = UTC
MEAN_ELEMENT_THEORY = SGP/SGP4

EPOCH          = 2026-01-08T22:12:39.197952
MEAN_MOTION    = 14.85456670
ECCENTRICITY   = .0019585
INCLINATION    = 82.5121
RA_OF_ASC_NODE = 251.5789
ARG_OF_PERICENTER = 76.9540
MEAN_ANOMALY   = 283.3861

EPHEMERIS_TYPE = 0
CLASSIFICATION_TYPE = U
NORAD_CAT_ID   = 18749
ELEMENT_SET_NO = 999
REV_AT_EPOCH   = 3315
BSTAR          = .47259E-4
MEAN_MOTION_DOT = .433E-5
MEAN_MOTION_DDOT = 0

